{
    "links": {
        "self": "http://www.neowsapp.com/rest/v1/neo/3798981?api_key=iIulBulltgU6a56xZRHN4H3l9WmuAYTsLGpBGhQ2"
    },
    "id": "3798981",
    "neo_reference_id": "3798981",
    "name": "(2018 BQ6)",
    "designation": "2018 BQ6",
    "nasa_jpl_url": "http://ssd.jpl.nasa.gov/sbdb.cgi?sstr=3798981",
    "absolute_magnitude_h": 27.5,
    "estimated_diameter": {
        "kilometers": {
            "estimated_diameter_min": 0.008405334,
            "estimated_diameter_max": 0.0187948982
        },
        "meters": {
            "estimated_diameter_min": 8.4053340207,
            "estimated_diameter_max": 18.7948982439
        },
        "miles": {
            "estimated_diameter_min": 0.0052228308,
            "estimated_diameter_max": 0.0116786047
        },
        "feet": {
            "estimated_diameter_min": 27.5765560686,
            "estimated_diameter_max": 61.6630539546
        }
    },
    "is_potentially_hazardous_asteroid": false,
    "close_approach_data": [
        {
            "close_approach_date": "2018-01-30",
            "close_approach_date_full": "2018-Jan-30 11:16",
            "epoch_date_close_approach": 1517310960000,
            "relative_velocity": {
                "kilometers_per_second": "9.8758016504",
                "kilometers_per_hour": "35552.8859415083",
                "miles_per_hour": "22091.1807118222"
            },
            "miss_distance": {
                "astronomical": "0.0087088001",
                "lunar": "3.3877232389",
                "kilometers": "1302817.945215787",
                "miles": "809533.5325883806"
            },
            "orbiting_body": "Moon"
        },
        {
            "close_approach_date": "2018-01-30",
            "close_approach_date_full": "2018-Jan-30 16:42",
            "epoch_date_close_approach": 1517330520000,
            "relative_velocity": {
                "kilometers_per_second": "10.1686096278",
                "kilometers_per_hour": "36606.9946599533",
                "miles_per_hour": "22746.1628763471"
            },
            "miss_distance": {
                "astronomical": "0.0092709139",
                "lunar": "3.6063855071",
                "kilometers": "1386908.972393393",
                "miles": "861785.2739311034"
            },
            "orbiting_body": "Earth"
        }
    ],
    "orbital_data": {
        "orbit_id": "2",
        "orbit_determination_date": "2018-02-02 06:20:21",
        "first_observation_date": "2018-01-27",
        "last_observation_date": "2018-01-30",
        "data_arc_in_days": 3,
        "observations_used": 34,
        "orbit_uncertainty": "8",
        "minimum_orbit_intersection": "5.38656E-5",
        "jupiter_tisserand_invariant": "3.692",
        "epoch_osculation": "2458147.5",
        "eccentricity": ".5276082847126641",
        "semi_major_axis": "1.962448768598539",
        "inclination": "4.408165833288838",
        "ascending_node_longitude": "132.1704669450415",
        "orbital_period": "1004.143817768106",
        "perihelion_distance": ".9270445399617843",
        "perihelion_argument": "34.05643799238638",
        "aphelion_distance": "2.997852997235294",
        "perihelion_time": "2458176.221397768816",
        "mean_anomaly": "349.7029658363523",
        "mean_motion": ".3585143817348456",
        "equinox": "J2000",
        "orbit_class": {
            "orbit_class_type": "APO",
            "orbit_class_description": "Near-Earth asteroid orbits which cross the Earth’s orbit similar to that of 1862 Apollo",
            "orbit_class_range": "a (semi-major axis) > 1.0 AU; q (perihelion) < 1.017 AU"
        }
    },
    "is_sentry_object": false
}